[{"OBJECT_NAME":"STARLINK-6132","OBJECT_ID":"2023-090A","EPOCH":"2026-03-08T23:45:09.897696","MEAN_MOTION":15.02537202,"ECCENTRICITY":0.00012937,"INCLINATION":43.0046,"RA_OF_ASC_NODE":278.8411,"ARG_OF_PERICENTER":265.8826,"MEAN_ANOMALY":94.1869,"EPHEMERIS_TYPE":0,"CLASSIFICATION_TYPE":"U","NORAD_CAT_ID":57101,"ELEMENT_SET_NO":999,"REV_AT_EPOCH":15030,"BSTAR":2.3332381e-5,"MEAN_MOTION_DOT":1.12e-6,"MEAN_MOTION_DDOT":0},{"OBJECT_NAME":"CZ-2C DEB","OBJECT_ID":"2014-066E","EPOCH":"2026-03-09T21:55:34.712544","MEAN_MOTION":14.96320405,"ECCENTRICITY":0.00459749,"INCLINATION":97.9301,"RA_OF_ASC_NODE":44.7594,"ARG_OF_PERICENTER":158.4857,"MEAN_ANOMALY":201.831,"EPHEMERIS_TYPE":0,"CLASSIFICATION_TYPE":"U","NORAD_CAT_ID":40290,"ELEMENT_SET_NO":999,"REV_AT_EPOCH":60512,"BSTAR":0.0018751551,"MEAN_MOTION_DOT":0.00021654,"MEAN_MOTION_DDOT":0}]
